FENGYUN 1C DEB          
1 38116U 99025EPM 17345.28773354  .00000259  00000-0  16002-3 0  9991
2 38116  99.0103   6.5452 0076435 165.5484 252.0088 14.12519410433130
